NORAD_CAT_ID,OBJECT_NAME,OBJECT_TYPE,EPOCH,MEAN_MOTION,ECCENTRICITY,INCLINATION,RA_OF_ASC_NODE,ARG_OF_PERICENTER,MEAN_ANOMALY,BSTAR,MEAN_MOTION_DOT,MEAN_MOTION_DDOT,TLE_LINE0,TLE_LINE1,TLE_LINE2,SEMIMAJOR_AXIS,PERIOD,APOGEE,PERIGEE,DECAYED
54793.0,STARLINK-5433,PAYLOAD,2024-01-06 03:45:46,15.08837978,0.0001484,53.2178,341.4376,102.5563,257.5595,5.4804e-05,5.84e-06,0.0,0 STARLINK-5433,1 54793U 22175AM  24006.15678982  .00000584  00000-0  54804-4 0  9995,2 54793  53.2178 341.4376 0001484 102.5563 257.5595 15.08837978 58314,6917.887,95.438,540.778,538.725,0.0
54793.0,STARLINK-5433,PAYLOAD,2024-01-06 06:56:32,15.08841953,0.0001489,53.218,340.843,102.5529,257.563,8.4863e-05,1.063e-05,0.0,0 STARLINK-5433,1 54793U 22175AM  24006.28926650  .00001063  00000-0  84863-4 0  9998,2 54793  53.2180 340.8430 0001489 102.5529 257.5630 15.08841953 60498,6917.874,95.437,540.769,538.709,0.0
54793.0,STARLINK-5433,PAYLOAD,2024-01-07 03:36:34,15.08835882,0.0001573,53.2201,336.9808,91.2305,268.8867,-3.7759e-05,-8.89e-06,0.0,0 STARLINK-5433,1 54793U 22175AM  24007.15039670 -.00000889  00000-0 -37759-4 0  9991,2 54793  53.2201 336.9808 0001573  91.2305 268.8867 15.08835882 58462,6917.893,95.438,540.846,538.67,0.0
54793.0,STARLINK-5433,PAYLOAD,2024-01-07 06:47:20,15.08837984,0.0001579,53.2201,336.3856,90.6575,269.4598,-1.825e-05,-5.78e-06,0.0,0 STARLINK-5433,1 54793U 22175AM  24007.28287569 -.00000578  00000-0 -18250-4 0  9997,2 54793  53.2201 336.3856 0001579  90.6575 269.4598 15.08837984 60643,6917.887,95.438,540.844,538.659,0.0
54793.0,STARLINK-5433,PAYLOAD,2024-01-08 05:02:44,15.08841557,0.000151,53.218,332.221,107.1862,252.9295,4.9608e-05,5.02e-06,0.0,0 STARLINK-5433,1 54793U 22175AM  24008.21023247  .00000502  00000-0  49608-4 0  9998,2 54793  53.2180 332.2210 0001510 107.1862 252.9295 15.08841557 58623,6917.876,95.437,540.785,538.696,0.0
54793.0,STARLINK-5433,PAYLOAD,2024-01-09 03:18:08,15.08837007,0.000194,53.2191,328.0586,66.7676,293.352,6.6902e-05,7.77e-06,0.0,0 STARLINK-5433,1 54793U 22175AM  24009.13760050  .00000777  00000-0  66902-4 0  9990,2 54793  53.2191 328.0586 0001940  66.7676 293.3520 15.08837007 58764,6917.89,95.438,541.097,538.412,0.0
54793.0,STARLINK-5433,PAYLOAD,2024-01-09 04:53:31,15.08839505,0.0002064,53.2193,327.7595,64.5125,295.608,9.1115e-05,1.162e-05,0.0,0 STARLINK-5433,1 54793U 22175AM  24009.20383867  .00001162  00000-0  91115-4 0  9998,2 54793  53.2193 327.7595 0002064  64.5125 295.6080 15.08839505 60938,6917.882,95.438,541.175,538.319,0.0
54793.0,STARLINK-5433,PAYLOAD,2024-01-09 20:47:22,15.08843966,0.0002063,53.2187,324.7893,64.8512,295.2694,8.635e-05,1.086e-05,0.0,0 STARLINK-5433,1 54793U 22175AM  24009.86623579  .00001086  00000-0  86350-4 0  9997,2 54793  53.2187 324.7893 0002063  64.8512 295.2694 15.08843966 61036,6917.868,95.437,541.16,538.306,0.0
54793.0,STARLINK-5433,PAYLOAD,2024-01-10 03:08:55,15.08845865,0.0002113,53.2188,323.6004,64.2347,295.8863,9.8784e-05,1.285e-05,0.0,0 STARLINK-5433,1 54793U 22175AM  24010.13119389  .00001285  00000-0  98784-4 0  9993,2 54793  53.2188 323.6004 0002113  64.2347 295.8863 15.08845865 58912,6917.862,95.437,541.189,538.266,0.0
54793.0,STARLINK-5433,PAYLOAD,2024-01-11 06:10:28,15.08848098,0.0001474,53.2186,318.5385,98.2321,261.8838,6.6754e-05,7.75e-06,0.0,0 STARLINK-5433,1 54793U 22175AM  24011.25726913  .00000775  00000-0  66754-4 0  9999,2 54793  53.2186 318.5385 0001474  98.2321 261.8838 15.08848098 59088,6917.856,95.437,540.74,538.701,0.0
54793.0,STARLINK-5433,PAYLOAD,2024-01-11 20:28:56,15.08844066,0.0001737,53.2176,315.8599,109.3155,250.8025,-9.1657e-05,-1.747e-05,0.0,0 STARLINK-5433,1 54793U 22175AM  24011.85343596 -.00001747  00000-0 -91657-4 0  9999,2 54793  53.2176 315.8599 0001737 109.3155 250.8025 15.08844066 59172,6917.868,95.437,540.935,538.531,0.0
54793.0,STARLINK-5433,PAYLOAD,2024-01-12 06:01:15,15.08846883,0.0001575,53.2186,314.0784,98.4464,261.6707,-2.1595e-05,-6.32e-06,0.0,0 STARLINK-5433,1 54793U 22175AM  24012.25087240 -.00000632  00000-0 -21595-4 0  9991,2 54793  53.2186 314.0784 0001575  98.4464 261.6707 15.08846883 61394,6917.859,95.437,540.814,538.635,0.0
54793.0,STARLINK-5433,PAYLOAD,2024-01-12 20:19:44,15.08835394,0.0001748,53.2183,311.3991,122.2249,237.8913,-4.1115e-05,-9.42e-06,0.0,0 STARLINK-5433,1 54793U 22175AM  24012.84704269 -.00000942  00000-0 -41115-4 0  9997,2 54793  53.2183 311.3991 0001748 122.2249 237.8913 15.08835394 59329,6917.894,95.438,540.969,538.55,0.0
54793.0,STARLINK-5433,PAYLOAD,2024-01-13 01:05:53,15.08837969,0.0001489,53.2183,310.5097,108.5112,251.6042,-1.4303e-05,-5.16e-06,0.0,0 STARLINK-5433,1 54793U 22175AM  24013.04576049 -.00000516  00000-0 -14303-4 0  9999,2 54793  53.2183 310.5097 0001489 108.5112 251.6042 15.08837969 61516,6917.887,95.438,540.782,538.722,0.0
54793.0,STARLINK-5433,PAYLOAD,2024-01-14 04:07:27,15.08839532,0.0001475,53.2186,305.459,92.5692,267.5469,9.3537e-05,1.201e-05,0.0,0 STARLINK-5433,1 54793U 22175AM  24014.17184308  .00001201  00000-0  93537-4 0  9993,2 54793  53.2186 305.4590 0001475  92.5692 267.5469 15.08839532 59525,6917.882,95.438,540.767,538.726,0.0
54793.0,STARLINK-5433,PAYLOAD,2024-01-15 03:58:13,15.08856288,0.0001461,53.2183,300.9997,104.0052,256.1103,0.00021261,3.099e-05,0.0,0 STARLINK-5433,1 54793U 22175AM  24015.16543078  .00003099  00000-0  21261-3 0  9997,2 54793  53.2183 300.9997 0001461 104.0052 256.1103 15.08856288 59679,6917.831,95.437,540.706,538.685,0.0
54793.0,STARLINK-5433,PAYLOAD,2024-01-16 03:49:01,15.08842598,0.0001818,53.218,296.5327,95.5026,264.6174,7.5102e-05,9.07e-06,0.0,0 STARLINK-5433,1 54793U 22175AM  24016.15904279  .00000907  00000-0  75102-4 0  9990,2 54793  53.2180 296.5327 0001818  95.5026 264.6174 15.08842598 59822,6917.872,95.437,540.995,538.48,0.0
54793.0,STARLINK-5433,PAYLOAD,2024-01-17 02:04:24,15.08850682,0.0001512,53.2175,292.3764,89.1916,270.925,-4.6477e-05,-1.028e-05,0.0,0 STARLINK-5433,1 54793U 22175AM  24017.08639983 -.00001028  00000-0 -46477-4 0  9990,2 54793  53.2175 292.3764 0001512  89.1916 270.9250 15.08850682 62128,6917.848,95.437,540.759,538.667,0.0
54793.0,STARLINK-5433,PAYLOAD,2024-01-17 19:33:40,15.08840155,0.0001365,53.2186,289.1016,108.0016,252.1125,-3.4817e-05,-8.42e-06,0.0,0 STARLINK-5433,1 54793U 22175AM  24017.81504670 -.00000842  00000-0 -34817-4 0  9993,2 54793  53.2186 289.1016 0001365 108.0016 252.1125 15.08840155 60071,6917.88,95.438,540.689,538.801,0.0
54793.0,STARLINK-5433,PAYLOAD,2024-01-17 21:09:03,15.08840743,0.0001406,53.2181,288.8024,103.7725,256.3424,-3.412e-05,-8.31e-06,0.0,0 STARLINK-5433,1 54793U 22175AM  24017.88128637 -.00000831  00000-0 -34120-4 0  9990,2 54793  53.2181 288.8024 0001406 103.7725 256.3424 15.08840743 62248,6917.878,95.438,540.716,538.77,0.0
54793.0,STARLINK-5433,PAYLOAD,2024-01-18 03:30:35,15.08846567,0.0001469,53.2179,287.6126,98.4818,261.6341,5.2518e-05,5.48e-06,0.0,0 STARLINK-5433,1 54793U 22175AM  24018.14624075  .00000548  00000-0  52518-4 0  9991,2 54793  53.2179 287.6126 0001469  98.4818 261.6341 15.08846567 60129,6917.86,95.437,540.742,538.709,0.0
54793.0,STARLINK-5433,PAYLOAD,2024-01-18 22:35:13,15.08843865,0.0001432,53.2175,284.045,81.5885,278.527,2.6722e-05,1.37e-06,0.0,0 STARLINK-5433,1 54793U 22175AM  24018.94112567  .00000137  00000-0  26722-4 0  9999,2 54793  53.2175 284.0450 0001432  81.5885 278.5270 15.08843865 62402,6917.869,95.437,540.724,538.743,0.0
54793.0,STARLINK-5433,PAYLOAD,2024-01-19 03:21:22,15.08849382,0.0001495,53.2183,283.1493,101.9285,258.1875,2.9626e-05,1.84e-06,0.0,0 STARLINK-5433,1 54793U 22175AM  24019.13984029  .00000184  00000-0  29626-4 0  9999,2 54793  53.2183 283.1493 0001495 101.9285 258.1875 15.08849382 62436,6917.852,95.437,540.751,538.682,0.0
54793.0,STARLINK-5433,PAYLOAD,2024-01-19 17:39:51,15.08838004,0.0001553,53.2177,280.4744,103.4407,256.6758,3.5657e-05,2.8e-06,0.0,0 STARLINK-5433,1 54793U 22175AM  24019.73600808  .00000280  00000-0  35657-4 0  9993,2 54793  53.2177 280.4744 0001553 103.4407 256.6758 15.08838004 60368,6917.886,95.438,540.826,538.677,0.0
54793.0,STARLINK-5433,PAYLOAD,2024-01-19 22:26:00,15.08834424,0.0001759,53.2182,279.5797,115.8344,244.283,0.00019216,2.771e-05,0.0,0 STARLINK-5433,1 54793U 22175AM  24019.93472542  .00002771  00000-0  19216-3 0  9996,2 54793  53.2182 279.5797 0001759 115.8344 244.2830 15.08834424 62555,6917.897,95.438,540.979,538.546,0.0
54793.0,STARLINK-5433,PAYLOAD,2024-01-20 03:12:09,15.08842046,0.0001408,53.2174,278.6915,90.0521,270.0632,6.5312e-05,7.52e-06,0.0,0 STARLINK-5433,1 54793U 22175AM  24020.13344513  .00000752  00000-0  65312-4 0  9992,2 54793  53.2174 278.6915 0001408  90.0521 270.0632 15.08842046 62589,6917.874,95.437,540.713,538.765,0.0
54793.0,STARLINK-5433,PAYLOAD,2024-01-20 22:16:47,15.08846902,0.0001386,53.2171,275.1223,106.5415,253.5729,-0.00018523,-3.235e-05,0.0,0 STARLINK-5433,1 54793U 22175AM  24020.92833130 -.00003235  00000-0 -18523-3 0  9999,2 54793  53.2171 275.1223 0001386 106.5415 253.5729 15.08846902 62702,6917.859,95.437,540.683,538.765,0.0
54793.0,STARLINK-5433,PAYLOAD,2024-01-20 23:52:10,15.08842355,0.000141,53.217,274.8249,105.9842,254.1305,-8.0703e-05,-1.572e-05,0.0,0 STARLINK-5433,1 54793U 22175AM  24020.99457088 -.00001572  00000-0 -80703-4 0  9992,2 54793  53.2170 274.8249 0001410 105.9842 254.1305 15.08842355 60556,6917.873,95.437,540.714,538.763,0.0
54793.0,STARLINK-5433,PAYLOAD,2024-01-21 22:07:34,15.08839078,0.0001369,53.2175,270.6595,100.2183,259.8964,1.3261e-05,-7.7e-07,0.0,0 STARLINK-5433,1 54793U 22175AM  24021.92193267 -.00000077  00000-0  13261-4 0  9995,2 54793  53.2175 270.6595 0001369 100.2183 259.8964 15.08839078 62854,6917.883,95.438,540.695,538.801,0.0
54793.0,STARLINK-5433,PAYLOAD,2024-01-22 02:53:47,15.08798515,0.0001412,53.2172,269.7698,118.5111,241.6023,-0.00029568,-4.985e-05,0.0,0 STARLINK-5433,1 54793U 22175AM  24022.12068883 -.00004985  00000-0 -29568-3 0  9992,2 54793  53.2172 269.7698 0001412 118.5111 241.6023 15.08798515 60725,6918.007,95.44,540.849,538.895,0.0
